C/2007 T1 (McNaught),e,117.0860,111.0408,233.4446,2324,0.0000088,0.99958696,0.0000,12/09.9824/2007,2000,g 10.5,4.0
# From MPEC 2026-FC5
P/2007 T2 (Kowalski),e,9.7498,3.3850,359.6590,3.043105,0.1856644,0.78518309,169.8343,05/18.0/2026,2000,g 18.5,4.0
# From MPEC 2026-EC7
C/2007 T5 (Gibbs),e,45.8158,109.7923,34.2447,45.99694,0.0031594,0.91252177,20.7439,05/18.0/2026,2000,g  8.0,4.0
# From MPEC 2026-EC7
C/2007 U1 (LINEAR),h,08/04.2690/2008,157.8475,50.1970,1.3463,1.000438,3.365401,2000,9.0,4.0
# From MPEC 2026-EC7
C/2007 VO53 (Spacewatch),h,04/30.4306/2010,87.1453,59.8059,75.0243,1.000154,4.832248,2000,7.0,4.0
# From MPEC 2026-EC7
C/2007 W3 (LINEAR),e,78.6866,73.4128,112.3305,2565,0.0000076,0.99931532,0.0000,06/03.4831/2008,2000,g 12.0,4.0
# From MPEC 2026-EC7
C/2007 Y1 (LINEAR),e,110.3978,132.8717,356.9942,3275,0.0000053,0.99897838,0.0000,03/13.2943/2008,2000,g 10.5,4.0
# From MPEC 2026-EC7
C/2007 Y2 (McNaught),e,98.7230,303.6262,257.8378,829.4701,0.0000413,0.99490661,0.0000,04/05.0600/2008,2000,g  9.0,4.0
# From MPEC 2026-FC5
C/2008 A1 (McNaught),e,82.0592,278.2095,348.3492,8749,0.0000012,0.99987752,0.0000,09/25.4533/2008,2000,g  6.5,4.0
# From MPEC 2026-FC5
C/2008 C1 (Chen-Gao),e,62.2764,307.5417,180.9041,1949,0.0000115,0.99935814,0.0000,04/16.7742/2008,2000,g 10.0,4.0
# From MPEC 2026-FC5
C/2008 E1 (Catalina),e,34.8637,188.8522,270.4603,10.76412,0.0279085,0.55286218,180.6662,05/18.0/2026,2000,g  7.0,4.0
# From MPEC 2026-FC5
C/2008 E3 (Garradd),e,104.8605,105.7439,218.0492,1516,0.0000167,0.99635646,0.0000,07/30.9292/2008,2000,g  6.0,4.0
# From MPEC 2026-FC5
C/2008 FK75 (Lemmon-SidingSpring),h,09/19.9483/2010,61.1241,218.2001,80.6152,1.000551,4.542406,2000,5.0,4.0
# From MPEC 2026-FC5
C/2008 G1 (Gibbs),e,72.8409,215.8661,63.7982,275.1968,0.0002159,0.98541527,0.0000,12/31.2717/2008,2000,g  9.5,4.0
# From MPEC 2026-FC5
C/2008 H1 (LINEAR),e,75.5224,34.6752,95.7891,51.12760,0.0026960,0.94667530,17.8751,05/18.0/2026,2000,g 10.5,4.0
# From MPEC 2026-FC5
C/2008 J1 (Boattini),e,61.4750,273.1278,68.3771,161.5848,0.0004798,0.98922873,0.0000,07/08.8736/2008,2000,g 10.0,4.0
# From MPEC 2026-FR0
C/2008 J4 (McNaught),h,06/19.9436/2008,87.1903,288.3110,272.8952,1.009734,0.443560,2000,15.0,4.0
# From MPEC 2026-FC5
C/2008 J5 (Garradd),e,93.1481,287.4957,313.2507,69.56869,0.0016986,0.97186042,0.0000,03/31.0547/2008,2000,g 12.0,4.0
# From MPEC 2026-FC5
C/2008 J6 (Hill),h,04/04.2545/2008,44.6853,298.3379,10.7181,1.001289,2.025780,2000,10.5,4.0
# From MPEC 2026-FR0
C/2008 L3 (Hill),e,100.2088,24.1863,101.5148,231.0399,0.0002807,0.99143592,0.0000,04/27.7453/2008,2000,g 14.0,4.0
# From MPEC 2026-FC5
C/2008 N1 (Holmes),e,115.4456,357.3545,100.5257,883.1151,0.0000376,0.99688195,0.0000,09/29.5714/2009,2000,g  9.0,4.0
# From MPEC 2026-FC5
P/2008 O3 (Boattini),e,32.3071,47.5518,341.2326,8.202894,0.0419521,0.69540787,274.5700,05/18.0/2026,2000,g 13.0,4.0
# From MPEC 2026-FC5
C/2008 P1 (Garradd),h,07/23.1938/2009,64.2374,357.7545,11.9737,1.000100,3.917448,2000,7.0,4.0
# From MPEC 2026-FC5
C/2008 Q1 (Maticic),e,118.5868,9.2299,104.1685,568.3113,0.0000727,0.99485534,0.0000,01/03.7133/2009,2000,g 10.0,4.0
# From MPEC 2026-FC5
C/2008 Q3 (Garradd),e,140.6532,219.8093,340.6441,1361,0.0000196,0.99869512,0.0000,06/21.4182/2009,2000,g 10.0,4.0
# From MPEC 2026-FC5
C/2008 R3 (LINEAR),e,43.1430,270.2559,84.4699,18.38711,0.0125007,0.89537398,79.8508,05/18.0/2026,2000,g 13.0,4.0
# From MPEC 2026-FC5
C/2008 S3 (Boattini),h,06/09.4757/2011,162.7376,54.9576,40.2553,1.001821,8.055160,2000,4.0,4.0
# From MPEC 2026-FC5
C/2008 T2 (Cardinal),e,56.7155,309.7990,215.6969,3084,0.0000058,0.99961282,0.0000,06/10.6351/2009,2000,g  6.0,4.0
# From MPEC 2026-FC5
C/2008 X3 (LINEAR),e,66.5907,337.4457,140.7445,43.20207,0.0034709,0.95641307,22.3082,05/18.0/2026,2000,g 13.0,4.0
# From MPEC 2026-FC5
P/2008 Y3 (McNaught),e,38.7879,262.8846,238.1694,8.031796,0.0432997,0.44878252,274.8504,05/18.0/2026,2000,g  8.5,4.0
# From MPEC 2026-FC5
P/2009 B1 (Boattini),e,22.2614,297.0728,129.0704,6.720963,0.0565662,0.63576441,357.5563,05/18.0/2026,2000,g 13.0,4.0
# From MPEC 2026-FC5
C/2009 B2 (LINEAR),e,156.8594,18.8236,192.3869,40.36489,0.0038432,0.94229677,24.1783,05/18.0/2026,2000,g 12.5,4.0
# From MPEC 2026-FC5
C/2009 E1 (Itagaki),e,127.9170,106.4068,49.2649,40.02962,0.0038916,0.98488817,0.0000,04/08.3779/2009,2000,g 11.5,4.0
# From MPEC 2026-FC5
C/2009 F1 (Larson),e,171.3994,357.9979,219.7713,94.40006,0.0010746,0.98036905,0.0000,06/15.4501/2009,2000,g 15.0,4.0
# From MPEC 2026-FC5
C/2009 F2 (McNaught),e,59.3382,214.0858,336.0721,319.3912,0.0001727,0.98171173,0.0000,11/12.7163/2009,2000,g  6.0,4.0
# From MPEC 2026-FC5
C/2009 F4 (McNaught),e,79.2454,53.4991,260.5183,14780,0.0000005,0.99962910,0.0000,12/24.1926/2011,2000,g  3.0,4.0
# From MPEC 2026-FC5
C/2009 F5 (McNaught),e,84.9867,219.1520,297.0909,78.49973,0.0014171,0.97178305,0.0000,11/08.1546/2008,2000,g 10.0,4.0
# From MPEC 2026-FC5
C/2009 F6 (Yi-SWAN),e,85.9049,278.1973,129.8864,471.7165,0.0000962,0.99728310,0.0000,05/05.8455/2009,2000,g  6.0,4.0
# From MPEC 2026-FC5
C/2009 G1 (STEREO),e,107.8191,120.9069,175.4455,427.4782,0.0001115,0.99737121,0.0000,04/17.2181/2009,2000,g  9.0,4.0
# From MPEC 2026-FC5
C/2009 K2 (Catalina),e,66.7096,124.0371,147.6201,921.4257,0.0000352,0.99646327,0.0000,02/01.7070/2010,2000,g 10.0,4.0
# From MPEC 2026-FC5
C/2009 K4 (Gibbs),e,34.8127,30.0995,127.2799,40.67987,0.0037987,0.96242903,23.4652,05/18.0/2026,2000,g 13.0,4.0
# From MPEC 2026-FC5
C/2009 K5 (McNaught),e,103.7131,257.6194,66.0514,1803,0.0000129,0.99920866,0.0000,04/23.6084/2010,2000,g  7.5,4.0
# From MPEC 2026-FC5
C/2009 O2 (Catalina),e,108.2161,309.7051,133.2348,242.0429,0.0002617,0.99712789,0.0000,03/20.6842/2010,2000,g 11.0,4.0
# From MPEC 2026-FC5
P/2009 O3 (Hill),e,16.2442,183.6936,154.3889,7.777634,0.0454394,0.68570671,282.1052,05/18.0/2026,2000,g 12.5,4.0
# From MPEC 2026-FC5
C/2009 O4 (Hill),h,01/06.0283/2010,95.6472,172.9399,223.7179,1.000785,2.558149,2000,10.0,4.0
# From MPEC 2026-E44
C/2009 P1 (Garradd),e,106.1189,325.7583,90.5043,14159,0.0000006,0.99989158,0.0000,12/24.7760/2011,2000,g  4.0,4.0
# From MPEC 2026-FC5
C/2009 P2 (Boattini),h,02/15.9101/2010,163.4918,60.5512,76.4687,1.001541,6.559226,2000,6.0,4.0
# From MPEC 2026-FC5
P/2009 Q5 (McNaught),e,40.9271,160.1289,209.2309,7.428425,0.0486809,0.60908747,296.1874,05/18.0/2026,2000,g 10.0,4.0
# From MPEC 2026-FC5
C/2009 R1 (McNaught),h,07/02.1256/2010,77.3759,321.9262,130.7828,1.000301,0.399824,2000,8.0,4.0
# From MPEC 2026-FC5
C/2009 S3 (Lemmon),h,12/07.1050/2011,60.3641,225.0255,130.0801,1.000321,6.517059,2000,6.5,4.0
# From MPEC 2026-FC5
C/2009 T1 (McNaught),e,89.8479,54.3091,282.7330,1058,0.0000287,0.99408126,0.0000,09/29.7215/2009,2000,g  6.5,4.0
# From MPEC 2026-FC5
P/2009 T2 (LaSagra),e,27.5823,215.8198,216.5072,7.705910,0.0460753,0.76734634,274.6900,05/18.0/2026,2000,g 14.0,4.0
# From MPEC 2026-FC5
C/2009 T3 (LINEAR),e,148.8559,60.1543,32.6242,5394,0.0000025,0.99957425,0.0000,01/13.1455/2010,2000,g 12.5,4.0
# From MPEC 2026-FC5
C/2009 U3 (Hill),e,51.3183,49.4665,77.4344,170.7920,0.0004416,0.99183937,0.0000,03/24.2723/2010,2000,g 13.0,4.0
# From MPEC 2026-FC5
C/2009 U5 (Grauer),h,06/26.0839/2010,25.5428,120.9236,23.9333,1.001505,6.066086,2000,7.0,4.0
# From MPEC 2026-FC5
C/2009 UG89 (Lemmon),h,12/18.3894/2010,129.9613,320.9538,60.4379,1.006084,3.909726,2000,9.0,4.0
# From MPEC 2026-FC5
C/2009 W2 (Boattini),e,164.4890,199.6051,121.7227,2227,0.0000094,0.99687536,0.0000,04/26.4483/2010,2000,g  7.0,4.0
# From MPEC 2026-FC5
P/2009 WX51 (Catalina),e,9.6026,31.4987,118.3140,3.083130,0.1820608,0.73976187,5.9961,05/18.0/2026,2000,g 19.0,2.0
# From MPEC 2026-FC5
C/2009 Y1 (Catalina),e,107.2857,160.4682,127.5352,352.3604,0.0001490,0.99278950,0.0000,01/25.5603/2011,2000,g  9.0,4.0
# From MPEC 2026-FC5
P/2009 Y2 (Kowalski),e,29.9846,262.0528,172.3097,6.539988,0.0589303,0.63762272,347.6795,05/18.0/2026,2000,g 13.0,4.0
# From MPEC 2026-FC5
C/2010 A4 (SidingSpring),e,96.7869,346.8220,271.8315,273.7429,0.0002176,0.98991327,0.0000,10/01.6341/2010,2000,g 12.5,4.0
# From MPEC 2026-E44
C/2010 B1 (Cardinal),e,102.2452,277.2244,211.6326,3207,0.0000054,0.99907959,0.0000,02/05.8416/2011,2000,g  7.5,4.0
# From MPEC 2026-E44
P/2010 C1 (Scotti),e,9.1142,141.7225,2.7313,7.135594,0.0517081,0.26478255,315.7137,05/18.0/2026,2000,g  9.5,4.0
# From MPEC 2026-E44
P/2010 D2 (WISE),e,57.1418,319.8865,120.0597,6.711493,0.0566859,0.45134122,336.3209,05/18.0/2026,2000,g 16.0,4.0
# From MPEC 2026-E44
C/2010 D3 (WISE),e,76.4048,255.4273,304.4470,6074,0.0000021,0.99930391,0.0000,09/04.2647/2010,2000,g  9.0,4.0
# From MPEC 2026-E44
C/2010 D4 (WISE),e,105.5121,266.8123,44.3504,62.61913,0.0019890,0.88594814,12.4585,05/18.0/2026,2000,g  6.5,4.0
# From MPEC 2026-E44
C/2010 DG56 (WISE),e,160.4060,4.0586,318.5734,67.43328,0.0017799,0.97615223,0.0000,05/15.1004/2010,2000,g 16.0,4.0
# From MPEC 2026-E44
C/2010 E1 (Garradd),e,71.6451,169.0994,296.8947,110.4545,0.0008490,0.97611549,0.0000,11/12.2936/2009,2000,g 11.5,4.0
# From MPEC 2026-E44
P/2010 E2 (Jarnac),e,15.4463,177.8822,8.1660,8.631248,0.0388681,0.72172430,229.4534,05/18.0/2026,2000,g 14.0,4.0
# From MPEC 2026-E44
C/2010 E3 (WISE),e,96.6748,117.3958,50.4808,285.9771,0.0002038,0.99204747,0.0000,04/03.0340/2010,2000,g 15.0,4.0
# From MPEC 2026-E44
C/2010 E5 (Scotti),e,18.9088,16.9953,147.7427,24.64884,0.0080540,0.84331985,48.4996,05/18.0/2026,2000,g 10.5,4.0
# From MPEC 2026-E44
C/2010 F1 (Boattini),e,64.9023,344.2103,127.4551,68.60658,0.0017344,0.94807640,10.4556,05/18.0/2026,2000,g  9.5,4.0
# From MPEC 2026-E44
C/2010 F3 (Scotti),e,4.6540,157.3469,31.0768,62.24594,0.0020070,0.91293973,11.5766,05/18.0/2026,2000,g  8.5,4.0
# From MPEC 2026-E44
C/2010 FB87 (WISE-Garradd),e,107.5530,89.6771,264.8820,223.1587,0.0002957,0.98724078,0.0000,11/01.4620/2010,2000,g 10.0,4.0
# From MPEC 2026-E44
C/2010 G1 (Boattini),e,78.7940,287.1787,168.7225,465.7901,0.0000980,0.99741284,0.0000,04/02.5277/2010,2000,g 12.5,4.0
# From MPEC 2026-E44
